     2.10           G: GLONASS NAV DATA                     RINEX VERSION / TYPE
teqc  2015Jun23                         20220708 01:25:43UTCPGM / RUN BY / DATE
Linux 2.4.21-27.ELsmp|Opteron|gcc -static|Linux x86_64|=+   COMMENT
  2022     6    27    9.313225746155D-10                    CORR TO SYSTEM TIME
                                                            END OF HEADER
21 22  6 28 22 45  0.0-3.131926059723D-04-2.728484105319D-12 8.100000000000D+04
   -1.875507812500D+03-9.381294250488D-02 1.862645149231D-09 0.000000000000D+00
    2.378871191406D+04 1.256506919861D+00-1.862645149231D-09 4.000000000000D+00
   -9.061939453125D+03 3.317931175232D+00-0.000000000000D+00 0.000000000000D+00
10 22  6 28 22 45  0.0-8.372776210308D-05-0.000000000000D+00 8.256000000000D+04
   -2.971597167969D+03-2.900659561157D+00-1.862645149231D-09 0.000000000000D+00
    1.208800830078D+04 9.384727478027D-01-1.862645149231D-09-7.000000000000D+00
    2.227167529297D+04-8.898630142212D-01-9.313225746155D-10 0.000000000000D+00
10 22  6 28 23 15  0.0-8.372776210308D-05-0.000000000000D+00 8.280000000000D+04
   -7.805666015625D+03-2.431711196899D+00-2.793967723846D-09 0.000000000000D+00
    1.404627880859D+04 1.205915451050D+00-1.862645149231D-09-7.000000000000D+00
    1.983069287109D+04-1.804589271545D+00-0.000000000000D+00 0.000000000000D+00
 7 22  6 28 23 15  0.0 3.709364682436D-05-0.000000000000D+00 8.280000000000D+04
    6.944281738281D+03-1.999248504639D+00 3.725290298462D-09 0.000000000000D+00
    1.600110009766D+04-1.588416099548D+00-0.000000000000D+00 5.000000000000D+00
   -1.855198291016D+04-2.117712974548D+00-0.000000000000D+00 0.000000000000D+00
 8 22  6 28 23 15  0.0-6.590597331524D-05-0.000000000000D+00 8.280000000000D+04
    1.883152929688D+04-4.185991287231D-01 3.725290298462D-09 0.000000000000D+00
    1.654332421875D+04-5.101423263550D-01-0.000000000000D+00 6.000000000000D+00
   -4.603534667969D+03-3.502858161926D+00-1.862645149231D-09 0.000000000000D+00
 9 22  6 28 23 15  0.0 6.300210952759D-05 1.818989403546D-12 8.280000000000D+04
   -2.025615283203D+04-8.841123580933D-01-2.793967723846D-09 0.000000000000D+00
    1.352254443359D+04 5.195903778076D-01-2.793967723846D-09-2.000000000000D+00
    7.468889648438D+03-3.354681015015D+00 1.862645149231D-09 0.000000000000D+00
20 22  6 28 23 15  0.0-7.354095578194D-05-9.094947017729D-13 8.280000000000D+04
   -9.788084472656D+03 5.113687515259D-01-2.793967723846D-09 0.000000000000D+00
    1.728042529297D+04-2.141988754272D+00-2.793967723846D-09 2.000000000000D+00
    1.598350634766D+04 2.632246971130D+00-0.000000000000D+00 0.000000000000D+00
21 22  6 28 23 15  0.0-3.131981939077D-04-2.728484105319D-12 8.280000000000D+04
   -1.754796386719D+03 1.901254653931D-01 9.313225746155D-10 0.000000000000D+00
    2.530785937500D+04 4.104270935059D-01-1.862645149231D-09 4.000000000000D+00
   -2.817004394531D+03 3.575917243958D+00-0.000000000000D+00 0.000000000000D+00
10 22  6 28 23 45  0.0-8.372776210308D-05-0.000000000000D+00 8.460000000000D+04
   -1.161233056641D+04-1.774611473083D+00-3.725290298462D-09 0.000000000000D+00
    1.629596142578D+04 1.252385139465D+00-1.862645149231D-09-7.000000000000D+00
    1.585943164062D+04-2.579224586487D+00 0.000000000000D+00 0.000000000000D+00
 7 22  6 28 23 45  0.0 3.709364682436D-05-0.000000000000D+00 8.460000000000D+04
    2.801865234375D+03-2.575162887573D+00 2.793967723846D-09 0.000000000000D+00
    1.320403564453D+04-1.478310585022D+00-9.313225746155D-10 5.000000000000D+00
   -2.159357421875D+04-1.239808082581D+00 0.000000000000D+00 0.000000000000D+00
 8 22  6 28 23 45  0.0-6.590690463781D-05-0.000000000000D+00 8.460000000000D+04
    1.736530273438D+04-1.216761589050D+00 3.725290298462D-09 0.000000000000D+00
    1.529392041016D+04-8.361625671387D-01-9.313225746155D-10 6.000000000000D+00
   -1.064836376953D+04-3.169768333435D+00-9.313225746155D-10 0.000000000000D+00
 9 22  6 28 23 45  0.0 6.300490349531D-05 1.818989403546D-12 8.460000000000D+04
   -2.111790283203D+04-8.352565765381D-02-2.793967723846D-09 0.000000000000D+00
    1.418236132812D+04 1.745805740356D-01-1.862645149231D-09-2.000000000000D+00
    1.218831054688D+03-3.544556617737D+00 2.793967723846D-09 0.000000000000D+00
20 22  6 28 23 45  0.0-7.354281842709D-05-0.000000000000D+00 8.460000000000D+04
   -9.137031250000D+03 1.817207336426D-01-3.725290298462D-09 0.000000000000D+00
    1.284397167969D+04-2.747881889343D+00-1.862645149231D-09 2.000000000000D+00
    2.004137646484D+04 1.847256660461D+00 0.000000000000D+00 0.000000000000D+00
21 22  6 28 23 45  0.0-3.132028505206D-04-2.728484105319D-12 8.460000000000D+04
   -1.338272460938D+03 2.302322387695D-01-0.000000000000D+00 0.000000000000D+00
    2.522533251953D+04-5.034646987915D-01-2.793967723846D-09 4.000000000000D+00
    3.645341796875D+03 3.557917594910D+00-0.000000000000D+00 0.000000000000D+00
